[{"OBJECT_NAME":"STARLINK-31322","OBJECT_ID":"2024-044S","EPOCH":"2026-03-09T02:42:38.904192","MEAN_MOTION":15.27567651,"ECCENTRICITY":0.00019263,"INCLINATION":43.006,"RA_OF_ASC_NODE":110.6049,"ARG_OF_PERICENTER":298.9548,"MEAN_ANOMALY":61.111,"EPHEMERIS_TYPE":0,"CLASSIFICATION_TYPE":"U","NORAD_CAT_ID":59168,"ELEMENT_SET_NO":999,"REV_AT_EPOCH":11350,"BSTAR":-3.5716406e-5,"MEAN_MOTION_DOT":-1.245e-5,"MEAN_MOTION_DDOT":0},{"OBJECT_NAME":"FENGYUN 1C DEB","OBJECT_ID":"1999-025QK","EPOCH":"2026-03-09T09:38:35.752416","MEAN_MOTION":15.21777611,"ECCENTRICITY":0.00584989,"INCLINATION":98.8236,"RA_OF_ASC_NODE":15.4163,"ARG_OF_PERICENTER":235.7553,"MEAN_ANOMALY":123.8129,"EPHEMERIS_TYPE":0,"CLASSIFICATION_TYPE":"U","NORAD_CAT_ID":30082,"ELEMENT_SET_NO":999,"REV_AT_EPOCH":2608,"BSTAR":0.001566847,"MEAN_MOTION_DOT":0.00037313,"MEAN_MOTION_DDOT":0}]
